#aV2008  7 22  0  0   .00000000      96 DD+AD WGS84 FIT  NGA
## 1489 172800.00000000   900.00000000 54669  .0000000000000
+   31     2  3  4  5  6  7  8  9 10 11 12 13 14 15 16 17 18
+         19 20 21 22 23 24 25 26 27 28 29 30 31 32  0  0  0
+          0  0  0  0  0  0  0  0  0  0  0  0  0  0  0  0  0
+          0  0  0  0  0  0  0  0  0  0  0  0  0  0  0  0  0
+          0  0  0  0  0  0  0  0  0  0  0  0  0  0  0  0  0
++         0  0  0  0  0  0  0  0  0  0  0  0  0  0  0  0  0
++         0  0  0  0  0  0  0  0  0  0  0  0  0  0  0  0  0
++         0  0  0  0  0  0  0  0  0  0  0  0  0  0  0  0  0
++         0  0  0  0  0  0  0  0  0  0  0  0  0  0  0  0  0
++         0  0  0  0  0  0  0  0  0  0  0  0  0  0  0  0  0
%c cc cc ccc ccc cccc cccc cccc cccc ccccc ccccc ccccc ccccc
%c cc cc ccc ccc cccc cccc cccc cccc ccccc ccccc ccccc ccccc
%f  0.0000000  0.000000000  0.00000000000  0.000000000000000
%f  0.0000000  0.000000000  0.00000000000  0.000000000000000
%i    0    0    0    0      0      0      0      0         0
%i    0    0    0    0      0      0      0      0         0
/*      NGA, ST. LOUIS,MO.                                  
/*   EPHEMERIS COMPUTED FROM  3 DAYS OF DATA                
/* CCCCCCCCCCCCCCCCCCCCCCCCCCCCCCCCCCCCCCCCCCCCCCCCCCCCCCCCC
/* CCCCCCCCCCCCCCCCCCCCCCCCCCCCCCCCCCCCCCCCCCCCCCCCCCCCCCCCC
*  2008  7 22  9 30   .00000000                                                 
P  2  23024.372688 -12693.062408  -2064.158729    200.290697                    
V  2   -140.409550   4443.782028 -31437.782626      -.025713                    
P  3 -12207.286892  14007.317080  18588.319240    259.097072                    
V  3  -5347.910774 -23896.646611  14647.775828       .053274                    
P  4  23652.755635  -4217.071489 -11811.275634   -121.910503                    
V  4 -11315.857779   9806.246695 -26021.855602      -.099747                    
P  5  -5601.634784 -17659.689196 -19360.047459   -337.728058                    
V  5  22614.846524   8169.857690 -14062.645630       .297046                    
P  6 -14572.992188   9027.896721  20485.761623    162.944651                    
V  6  -2846.055935 -25541.415031   9304.543722       .030038                    
P  7   6320.147585  13857.639623  21724.788669      -.862245                    
V  7 -23684.896013  14281.104378  -2297.091182       .051813                    
P  8  17860.308295   4803.004253  19162.606866   -162.771490                    
V  8 -20962.686124  12287.550977  15919.240853      -.015688                    
P  9   9144.400062 -19390.586379 -16225.629886      6.448082                    
V  9  17083.138804  -9461.926370  21946.009146       .016943                    
P 10  17470.136830  -5398.648770  19240.961719     -3.125994                    
V 10  20772.575601  13249.178401 -14717.611429      -.003307                    
P 11  -4669.355626  21161.765237 -15301.345129     22.940463                    
V 11 -16752.641418  10656.839732  20394.615296      -.007165                    
P 12   -250.314149 -16506.023040 -20743.261014   -356.499091                    
V 12  23649.840736  11975.664966  -9678.729575       .008237                    
P 13   6243.126567  23592.870540  10371.437495    264.772508                    
V 13  -1807.775211  13268.621895 -28750.190265       .014453                    
P 14 -13788.158976  -8409.067016 -21009.071806   -241.267816                    
V 14    646.844960 -26804.985829  10150.104774       .044458                    
P 15   7666.049120 -22345.020456  12151.643021   -146.941519                    
V 15   3039.180644  15298.123830  26269.333774      -.063873                    
P 16 -21041.857195   1075.004657  16362.340544    115.857792                    
V 16 -17097.301029 -11529.122326 -21111.834230      -.017780                    
P 17  14674.315477   7623.437821 -20775.470823     38.714915                    
V 17   -374.924010  26454.876448   9261.274964       .001886                    
P 18 -17868.535062 -17907.928031   8877.251020   -153.606603                    
V 18  10747.187098   3265.543834  28474.434622       .042539                    
P 19  -8794.302162  22379.091516  11144.844863     33.843534                    
V 19  -2050.092322 -14200.704100  27295.261902       .004548                    
P 20   1931.181345  17339.845095 -20151.815572    109.373100                    
V 20 -23058.465615 -10646.242152 -11403.482548      -.008356                    
P 21 -12459.166007 -10768.307718  21123.148713     57.176244                    
V 21  22592.215384 -13601.920749   5834.552292      -.013074                    
P 22 -23866.231924 -11051.770105  -3777.772743    211.478781                    
V 22  -2628.650742  -5337.986782  30870.259396      -.000770                    
P 23    -46.625504  26401.054626  -1004.140247    365.509923                    
V 23  -2733.446598  -1136.800669 -32125.586431       .017700                    
P 24   3504.057087 -17832.293276  19624.591653    111.333271                    
V 24  22062.632451 -10732.373358 -13536.997694       .028462                    
P 25   -373.830308  17758.956096  20158.165159   -197.941566                    
V 25 -20314.583167  14166.076269 -12914.774910      -.126330                    
P 26  10175.226098 -18666.093269  15071.950817    296.814528                    
V 26   1403.098810  20218.656231  23853.705419       .066432                    
P 27   9514.926537  12043.674026  22357.196755    204.536289                    
V 27 -21893.294226  15354.565048    952.573054       .026447                    
P 28  23718.307405  12130.385155  -1954.219553    -21.254487                    
V 28   1317.517269   3569.311939  31492.952394      -.002589                    
P 29  -5309.594353 -25020.400904   7335.867705    -41.202183                    
V 29   2582.064821  -9170.209168 -29857.306193       .005967                    
P 30 -13909.708844 -18045.369856 -14080.278516     87.180257                    
V 30  16512.048272   5584.761528 -23970.785757       .019536                    
P 31 -23655.479357   6436.578484 -10159.433725    -24.910371                    
V 31   9990.855686  -8836.821682 -28193.710572      -.001272                    
P 32  -6293.832585  13566.250077 -21528.944154    308.790786                    
V 32 -23778.383010 -15416.370205  -2539.218152       .026742                    
EOF
